ISS (ZARYA)             
1 25544U 98067A   26098.00520295  .00007234  00000+0  14015-3 0  9997
2 25544  51.6328 287.4161 0006332 285.7518  74.2772 15.48824658560872
POISK                   
1 36086U 09060A   26098.00520295  .00007234  00000+0  14015-3 0  9995
2 36086  51.6328 287.4161 0006332 285.7518  74.2772 15.48824658560572
CSS (TIANHE)            
1 48274U 21035A   26098.26559296  .00026618  00000+0  29772-3 0  9997
2 48274  41.4683  28.0025 0004123 158.7082 201.3929 15.62110392282234
ISS (NAUKA)             
1 49044U 21066A   26098.00520295  .00007234  00000+0  14015-3 0  9993
2 49044  51.6328 287.4161 0006332 285.7518  74.2772 15.48824658560615
FREGAT DEB              
1 49271U 11037PF  26098.00895060  .00004481  00000+0  66368-2 0  9995
2 49271  51.6393 212.7058 0953036 126.6289 242.6091 12.40965096216338
CSS (WENTIAN)           
1 53239U 22085A   26098.26559296  .00026618  00000+0  29772-3 0  9990
2 53239  41.4683  28.0025 0004123 158.7082 201.3929 15.62110392282545
CSS (MENGTIAN)          
1 54216U 22143A   26098.26559296  .00026618  00000+0  29772-3 0  9991
2 54216  41.4683  28.0025 0004123 158.7082 201.3929 15.62110392282541
TIANZHOU-9              
1 64786U 25149A   26098.26559296  .00026618  00000+0  29772-3 0  9993
2 64786  41.4683  28.0025 0004123 158.7082 201.3929 15.62110392282544
PROGRESS-MS 32          
1 65586U 25204A   26098.00520295  .00007234  00000+0  14015-3 0  9990
2 65586  51.6328 287.4161 0006332 285.7518  74.2772 15.48824658554505
YOTSUBA-KULOVER         
1 65941U 98067XN  26097.75414413  .00782216  31052-3  12041-2 0  9998
2 65941  51.6139 264.5587 0009569 287.9509  72.0459 16.03604454 28121
BOTAN                   
1 65943U 98067XQ  26097.83662340  .00689339  23094-3  12016-2 0  9994
2 65943  51.6174 264.3920 0009291 286.3833  73.6156 16.01506813 28136
HRC MONOBLOCK CAMERA    
1 66052U 98067XR  26098.22345518  .00061757  00000+0  60166-3 0  9991
2 66052  51.6268 276.1167 0003808 244.1127 115.9476 15.65635723 27015
HTV-X1                  
1 66174U 25241A   26098.25613653  .00004425  00000+0  15006-3 0  9993
2 66174  51.6370 290.5244 0007362 287.5429  72.4747 15.32581843 25478
SZ-21 MODULE            
1 66515U 25246C   26098.14836004  .00040364  00000+0  31306-3 0  9995
2 66515  41.4751  21.6986 0003828 243.7745 116.2704 15.71029132 22705
SHENZHOU-22             
1 66645U 25272A   26098.26559296  .00026618  00000+0  29772-3 0  9996
2 66645  41.4683  28.0025 0004123 158.7082 201.3929 15.62110392282540
SOYUZ-MS 28             
1 66664U 25275A   26098.00520295  .00007234  00000+0  14015-3 0  9996
2 66664  51.6328 287.4161 0006332 285.7518  74.2772 15.48824658560858
