[{"OBJECT_NAME":"ISS (ZARYA)","OBJECT_ID":"1998-067A","EPOCH":"2026-04-08T00:07:29.534880","MEAN_MOTION":15.48824658,"ECCENTRICITY":0.00063328,"INCLINATION":51.6328,"RA_OF_ASC_NODE":287.4161,"ARG_OF_PERICENTER":285.7518,"MEAN_ANOMALY":74.2772,"EPHEMERIS_TYPE":0,"CLASSIFICATION_TYPE":"U","NORAD_CAT_ID":25544,"ELEMENT_SET_NO":999,"REV_AT_EPOCH":56087,"BSTAR":0.00014015075,"MEAN_MOTION_DOT":7.234e-5,"MEAN_MOTION_DDOT":0},{"OBJECT_NAME":"POISK","OBJECT_ID":"2009-060A","EPOCH":"2026-04-08T00:07:29.534880","MEAN_MOTION":15.48824658,"ECCENTRICITY":0.00063328,"INCLINATION":51.6328,"RA_OF_ASC_NODE":287.4161,"ARG_OF_PERICENTER":285.7518,"MEAN_ANOMALY":74.2772,"EPHEMERIS_TYPE":0,"CLASSIFICATION_TYPE":"U","NORAD_CAT_ID":36086,"ELEMENT_SET_NO":999,"REV_AT_EPOCH":56057,"BSTAR":0.00014015075,"MEAN_MOTION_DOT":7.234e-5,"MEAN_MOTION_DDOT":0},{"OBJECT_NAME":"CSS (TIANHE)","OBJECT_ID":"2021-035A","EPOCH":"2026-04-08T06:22:27.231744","MEAN_MOTION":15.62110392,"ECCENTRICITY":0.0004123,"INCLINATION":41.4683,"RA_OF_ASC_NODE":28.0025,"ARG_OF_PERICENTER":158.7082,"MEAN_ANOMALY":201.3929,"EPHEMERIS_TYPE":0,"CLASSIFICATION_TYPE":"U","NORAD_CAT_ID":48274,"ELEMENT_SET_NO":999,"REV_AT_EPOCH":28223,"BSTAR":0.00029771721,"MEAN_MOTION_DOT":0.00026618,"MEAN_MOTION_DDOT":0},{"OBJECT_NAME":"ISS (NAUKA)","OBJECT_ID":"2021-066A","EPOCH":"2026-04-08T00:07:29.534880","MEAN_MOTION":15.48824658,"ECCENTRICITY":0.00063328,"INCLINATION":51.6328,"RA_OF_ASC_NODE":287.4161,"ARG_OF_PERICENTER":285.7518,"MEAN_ANOMALY":74.2772,"EPHEMERIS_TYPE":0,"CLASSIFICATION_TYPE":"U","NORAD_CAT_ID":49044,"ELEMENT_SET_NO":999,"REV_AT_EPOCH":56061,"BSTAR":0.00014015075,"MEAN_MOTION_DOT":7.234e-5,"MEAN_MOTION_DDOT":0},{"OBJECT_NAME":"FREGAT DEB","OBJECT_ID":"2011-037PF","EPOCH":"2026-04-08T00:12:53.331840","MEAN_MOTION":12.40965096,"ECCENTRICITY":0.09530362,"INCLINATION":51.6393,"RA_OF_ASC_NODE":212.7058,"ARG_OF_PERICENTER":126.6289,"MEAN_ANOMALY":242.6091,"EPHEMERIS_TYPE":0,"CLASSIFICATION_TYPE":"U","NORAD_CAT_ID":49271,"ELEMENT_SET_NO":999,"REV_AT_EPOCH":21633,"BSTAR":0.0066367927,"MEAN_MOTION_DOT":4.481e-5,"MEAN_MOTION_DDOT":0},{"OBJECT_NAME":"CSS (WENTIAN)","OBJECT_ID":"2022-085A","EPOCH":"2026-04-08T06:22:27.231744","MEAN_MOTION":15.62110392,"ECCENTRICITY":0.0004123,"INCLINATION":41.4683,"RA_OF_ASC_NODE":28.0025,"ARG_OF_PERICENTER":158.7082,"MEAN_ANOMALY":201.3929,"EPHEMERIS_TYPE":0,"CLASSIFICATION_TYPE":"U","NORAD_CAT_ID":53239,"ELEMENT_SET_NO":999,"REV_AT_EPOCH":28254,"BSTAR":0.00029771721,"MEAN_MOTION_DOT":0.00026618,"MEAN_MOTION_DDOT":0},{"OBJECT_NAME":"CSS (MENGTIAN)","OBJECT_ID":"2022-143A","EPOCH":"2026-04-08T06:22:27.231744","MEAN_MOTION":15.62110392,"ECCENTRICITY":0.0004123,"INCLINATION":41.4683,"RA_OF_ASC_NODE":28.0025,"ARG_OF_PERICENTER":158.7082,"MEAN_ANOMALY":201.3929,"EPHEMERIS_TYPE":0,"CLASSIFICATION_TYPE":"U","NORAD_CAT_ID":54216,"ELEMENT_SET_NO":999,"REV_AT_EPOCH":28254,"BSTAR":0.00029771721,"MEAN_MOTION_DOT":0.00026618,"MEAN_MOTION_DDOT":0},{"OBJECT_NAME":"TIANZHOU-9","OBJECT_ID":"2025-149A","EPOCH":"2026-04-08T06:22:27.231744","MEAN_MOTION":15.62110392,"ECCENTRICITY":0.0004123,"INCLINATION":41.4683,"RA_OF_ASC_NODE":28.0025,"ARG_OF_PERICENTER":158.7082,"MEAN_ANOMALY":201.3929,"EPHEMERIS_TYPE":0,"CLASSIFICATION_TYPE":"U","NORAD_CAT_ID":64786,"ELEMENT_SET_NO":999,"REV_AT_EPOCH":28254,"BSTAR":0.00029771721,"MEAN_MOTION_DOT":0.00026618,"MEAN_MOTION_DDOT":0},{"OBJECT_NAME":"PROGRESS-MS 32","OBJECT_ID":"2025-204A","EPOCH":"2026-04-08T00:07:29.534880","MEAN_MOTION":15.48824658,"ECCENTRICITY":0.00063328,"INCLINATION":51.6328,"RA_OF_ASC_NODE":287.4161,"ARG_OF_PERICENTER":285.7518,"MEAN_ANOMALY":74.2772,"EPHEMERIS_TYPE":0,"CLASSIFICATION_TYPE":"U","NORAD_CAT_ID":65586,"ELEMENT_SET_NO":999,"REV_AT_EPOCH":55450,"BSTAR":0.00014015075,"MEAN_MOTION_DOT":7.234e-5,"MEAN_MOTION_DDOT":0},{"OBJECT_NAME":"YOTSUBA-KULOVER","OBJECT_ID":"1998-067XN","EPOCH":"2026-04-07T18:05:58.052832","MEAN_MOTION":16.03604454,"ECCENTRICITY":0.0009569,"INCLINATION":51.6139,"RA_OF_ASC_NODE":264.5587,"ARG_OF_PERICENTER":287.9509,"MEAN_ANOMALY":72.0459,"EPHEMERIS_TYPE":0,"CLASSIFICATION_TYPE":"U","NORAD_CAT_ID":65941,"ELEMENT_SET_NO":999,"REV_AT_EPOCH":2812,"BSTAR":0.001204109,"MEAN_MOTION_DOT":0.00782216,"MEAN_MOTION_DDOT":0.00031051775},{"OBJECT_NAME":"BOTAN","OBJECT_ID":"1998-067XQ","EPOCH":"2026-04-07T20:04:44.261760","MEAN_MOTION":16.01506813,"ECCENTRICITY":0.00092919,"INCLINATION":51.6174,"RA_OF_ASC_NODE":264.392,"ARG_OF_PERICENTER":286.3833,"MEAN_ANOMALY":73.6156,"EPHEMERIS_TYPE":0,"CLASSIFICATION_TYPE":"U","NORAD_CAT_ID":65943,"ELEMENT_SET_NO":999,"REV_AT_EPOCH":2813,"BSTAR":0.0012015645,"MEAN_MOTION_DOT":0.00689339,"MEAN_MOTION_DDOT":0.00023094218},{"OBJECT_NAME":"HRC MONOBLOCK CAMERA","OBJECT_ID":"1998-067XR","EPOCH":"2026-04-08T05:21:46.527552","MEAN_MOTION":15.65635723,"ECCENTRICITY":0.00038087,"INCLINATION":51.6268,"RA_OF_ASC_NODE":276.1167,"ARG_OF_PERICENTER":244.1127,"MEAN_ANOMALY":115.9476,"EPHEMERIS_TYPE":0,"CLASSIFICATION_TYPE":"U","NORAD_CAT_ID":66052,"ELEMENT_SET_NO":999,"REV_AT_EPOCH":2701,"BSTAR":0.00060166275,"MEAN_MOTION_DOT":0.00061757,"MEAN_MOTION_DDOT":0},{"OBJECT_NAME":"HTV-X1","OBJECT_ID":"2025-241A","EPOCH":"2026-04-08T06:08:50.196192","MEAN_MOTION":15.32581843,"ECCENTRICITY":0.00073625,"INCLINATION":51.637,"RA_OF_ASC_NODE":290.5244,"ARG_OF_PERICENTER":287.5429,"MEAN_ANOMALY":72.4747,"EPHEMERIS_TYPE":0,"CLASSIFICATION_TYPE":"U","NORAD_CAT_ID":66174,"ELEMENT_SET_NO":999,"REV_AT_EPOCH":2547,"BSTAR":0.00015005997,"MEAN_MOTION_DOT":4.425e-5,"MEAN_MOTION_DDOT":0},{"OBJECT_NAME":"SZ-21 MODULE","OBJECT_ID":"2025-246C","EPOCH":"2026-04-08T03:33:38.307456","MEAN_MOTION":15.71029132,"ECCENTRICITY":0.00038283,"INCLINATION":41.4751,"RA_OF_ASC_NODE":21.6986,"ARG_OF_PERICENTER":243.7745,"MEAN_ANOMALY":116.2704,"EPHEMERIS_TYPE":0,"CLASSIFICATION_TYPE":"U","NORAD_CAT_ID":66515,"ELEMENT_SET_NO":999,"REV_AT_EPOCH":2270,"BSTAR":0.00031306428,"MEAN_MOTION_DOT":0.00040364,"MEAN_MOTION_DDOT":0},{"OBJECT_NAME":"SHENZHOU-22","OBJECT_ID":"2025-272A","EPOCH":"2026-04-08T06:22:27.231744","MEAN_MOTION":15.62110392,"ECCENTRICITY":0.0004123,"INCLINATION":41.4683,"RA_OF_ASC_NODE":28.0025,"ARG_OF_PERICENTER":158.7082,"MEAN_ANOMALY":201.3929,"EPHEMERIS_TYPE":0,"CLASSIFICATION_TYPE":"U","NORAD_CAT_ID":66645,"ELEMENT_SET_NO":999,"REV_AT_EPOCH":28254,"BSTAR":0.00029771721,"MEAN_MOTION_DOT":0.00026618,"MEAN_MOTION_DDOT":0},{"OBJECT_NAME":"SOYUZ-MS 28","OBJECT_ID":"2025-275A","EPOCH":"2026-04-08T00:07:29.534880","MEAN_MOTION":15.48824658,"ECCENTRICITY":0.00063328,"INCLINATION":51.6328,"RA_OF_ASC_NODE":287.4161,"ARG_OF_PERICENTER":285.7518,"MEAN_ANOMALY":74.2772,"EPHEMERIS_TYPE":0,"CLASSIFICATION_TYPE":"U","NORAD_CAT_ID":66664,"ELEMENT_SET_NO":999,"REV_AT_EPOCH":56085,"BSTAR":0.00014015075,"MEAN_MOTION_DOT":7.234e-5,"MEAN_MOTION_DDOT":0}]
